195P/Hill,e,36.3316,243.1261,249.2575,6.505362,0.0594014,0.31364650,283.0459,01/09.0/2022,2000,g  8.5,4.0
# From MPC 92985
196P/Tichy,e,19.2932,24.1358,12.1442,3.805180,0.1327826,0.42864716,321.0118,01/09.0/2022,2000,g 13.5,4.0
# From MPC 94676
197P/LINEAR,e,25.5293,66.3726,188.7491,2.867956,0.2029296,0.62944271,292.4830,01/09.0/2022,2000,g 16.5,2.0
# From NK 1596
198P/ODAS,e,1.3387,358.2488,69.1783,3.597861,0.1444234,0.44369978,162.0438,01/09.0/2022,2000,g  9.0,4.0
# From MPC 75725
199P/Shoemaker,e,24.9319,92.3670,191.7147,5.890445,0.0689417,0.50585419,320.2838,01/09.0/2022,2000,g 10.0,4.0
# From MPEC 2021-F20
200P/Larsen,e,12.0988,234.7743,134.1669,4.943110,0.0896817,0.33267897,80.2170,01/09.0/2022,2000,g  9.0,4.0
# From MPC 93588
201P/LONEOS,e,5.7391,19.7461,41.5481,3.354439,0.1604258,0.63710092,36.4671,01/09.0/2022,2000,g 14.0,4.0
# From MPEC 2021-N06
202P/Scotti,e,2.1033,177.6097,276.8312,4.079111,0.1196343,0.26252649,256.4826,01/09.0/2022,2000,g 13.5,4.0
# From MPEC 2021-S45
203P/Korlevic,e,2.9727,290.3303,154.7878,4.670521,0.0976464,0.31530200,65.9434,01/09.0/2022,2000,g 14.5,2.0
# From MPC 98566
204P/LINEAR-NEAT,e,6.5963,108.5237,356.5430,3.584773,0.1452151,0.48805097,314.7376,01/09.0/2022,2000,g 14.0,4.0
# From MPEC 2021-W31
205P/Giacobini,e,15.3055,179.6023,154.1954,3.543721,0.1477457,0.56821910,359.3026,01/09.0/2022,2000,g 13.0,4.0
# From MPC 75725
206P/Barnard-Boattini,e,33.6340,202.3396,189.4950,3.488669,0.1512567,0.55143382,46.9602,01/09.0/2022,2000,g 19.0,4.0
# From MPC 75725
207P/NEAT,e,10.1920,198.2570,273.0449,3.873462,0.1292871,0.75888145,262.6700,01/09.0/2022,2000,g 16.0,4.0
# From MPEC 2020-W26
208P/McMillan,e,4.4117,36.3409,310.5017,4.044240,0.1211849,0.37403986,243.9828,01/09.0/2022,2000,g 12.5,4.0
# From MPC 90771
209P/LINEAR,e,21.2555,62.7742,152.4512,2.959942,0.1935438,0.67303167,182.2620,01/09.0/2022,2000,g 17.0,2.0
# From MPC105242
210P/Christensen,e,10.2654,93.8226,345.8936,3.163747,0.1751465,0.83331486,112.2853,01/09.0/2022,2000,g 13.5,4.0
# From MPEC 2021-WD8
211P/Hill,e,18.9213,117.1316,4.2747,3.545974,0.1476049,0.34355783,320.3531,01/09.0/2022,2000,g 12.5,4.0
# From MPEC 2021-F20
212P/NEAT,e,22.1975,98.2171,14.0765,3.891862,0.1283713,0.58762422,252.5228,01/09.0/2022,2000,g 17.0,2.0
# From MPC114608
213P/Van Ness,e,10.3814,311.2950,5.6771,3.347258,0.1609423,0.40825026,251.9679,01/09.0/2022,2000,g 10.5,4.0
# From MPC 92986
214P/LINEAR,e,15.1834,348.2493,190.2065,3.619092,0.1431544,0.48583677,322.7411,01/09.0/2022,2000,g 13.0,4.0
# From MPEC 2022-A21
215P/NEAT,e,10.5796,56.6854,262.2666,4.329016,0.1094259,0.16665042,85.5467,01/09.0/2022,2000,g 11.0,4.0
# From MPC100284
216P/LINEAR,e,9.0643,359.8116,151.4064,3.865930,0.1296651,0.44755204,265.6191,01/09.0/2022,2000,g 13.0,4.0
# From MPEC 2021-N06
217P/LINEAR,e,12.8635,125.4658,246.8681,3.949948,0.1255501,0.68902995,205.3684,01/09.0/2022,2000,g 12.0,4.0
# From MPEC 2020-K19
218P/LINEAR,e,2.7284,175.9745,59.6966,3.091740,0.1813008,0.62224005,83.7987,01/09.0/2022,2000,g 16.0,4.0
# From MPC100284
219P/LINEAR,e,11.5349,230.9575,107.4860,3.648679,0.1414167,0.35410021,251.7546,01/09.0/2022,2000,g 11.0,4.0
# From MPEC 2021-BE3
220P/McNaught,e,8.1288,150.1018,180.5599,3.116303,0.1791614,0.50167749,70.6543,01/09.0/2022,2000,g 15.0,4.0
# From MPEC 2021-J28
221P/LINEAR,e,11.4276,229.7026,40.1180,3.455472,0.1534416,0.49265090,3.3643,01/09.0/2022,2000,g 14.5,4.0
# From MPC 92277
222P/LINEAR,e,5.0982,6.7766,346.2576,2.899222,0.1996558,0.71474323,189.3611,01/09.0/2022,2000,g 20.0,4.0
# From MPEC 2021-S45
223P/Skiff,e,27.0264,346.7706,37.8218,4.158978,0.1162048,0.41621487,125.1658,01/09.0/2022,2000,g 12.0,4.0
# From MPC 75727
224P/LINEAR-NEAT,e,13.2992,40.0693,16.6436,3.447059,0.1540037,0.40660797,319.3567,01/09.0/2022,2000,g 15.5,4.0
# From MPC 75727
225P/LINEAR,e,21.3651,14.2001,3.8824,3.649300,0.1413806,0.63829619,278.5481,01/09.0/2022,2000,g 18.0,4.0
# From MPC106349
226P/Pigott-LINEAR-Kowalski,e,44.0341,54.0045,341.0463,3.766969,0.1348081,0.52872266,263.2927,01/09.0/2022,2000,g 12.5,4.0
# From MPC102956
227P/Catalina-LINEAR,e,6.7564,43.5548,96.4870,3.522379,0.1490905,0.52492299,243.1521,01/09.0/2022,2000,g 16.5,2.0
# From MPEC 2020-L06
228P/LINEAR,e,7.9127,30.9824,115.0577,4.169296,0.1157737,0.17625598,77.6661,01/09.0/2022,2000,g 14.5,2.0
# From MPC106349
229P/Gibbs,e,26.0924,157.9111,223.9843,3.928547,0.1265774,0.37747266,214.2360,01/09.0/2022,2000,g 13.0,4.0
# From MPEC 2022-A21
230P/LINEAR,e,15.4701,106.9856,313.4250,3.451593,0.1537003,0.54548835,349.3447,01/09.0/2022,2000,g 13.0,4.0
# From MPEC 2021-UA9
231P/LINEAR-NEAT,e,12.3286,133.0172,43.8523,4.035898,0.1215609,0.24607683,113.8281,01/09.0/2022,2000,g 14.1,4.0
# From MPC112394
232P/Hill,e,14.6377,56.0159,53.3318,4.477872,0.1040151,0.33428627,104.9905,01/09.0/2022,2000,g 11.5,4.0
# From MPEC 2021-N06
233P/La Sagra,e,11.2851,74.9165,27.0100,3.029695,0.1868985,0.41187087,86.7963,01/09.0/2022,2000,g 15.0,4.0
# From MPC110497
234P/LINEAR,e,11.5343,179.5682,357.2215,3.799194,0.1330966,0.25539694,224.3579,01/09.0/2022,2000,g 12.0,4.0
# From MPC110497
235P/LINEAR,e,9.0190,203.0112,333.4050,3.951715,0.1254659,0.32755649,174.4496,01/09.0/2022,2000,g 12.0,4.0
# From MPC107688
236P/LINEAR,e,16.3412,245.6003,119.2686,3.729460,0.1368469,0.50918028,206.5268,01/09.0/2022,2000,g 14.0,4.0
# From MPC109593
237P/LINEAR,e,14.0148,245.3765,25.2373,3.512298,0.1497328,0.43434112,286.5405,01/09.0/2022,2000,g 14.5,2.0
# From MPC107688
238P/Read,e,1.2641,51.6235,324.3124,3.168670,0.1747385,0.25234813,334.1798,01/09.0/2022,2000,g 14.5,4.0
# From MPEC 2021-F20
239P/LINEAR,e,11.2981,255.9152,220.4198,4.469329,0.1043135,0.63007206,114.2965,01/09.0/2022,2000,g 17.5,2.0
# From MPEC 2021-F20
240P/NEAT,e,23.5174,74.9089,351.9466,3.865738,0.1296747,0.44926481,173.0202,01/09.0/2022,2000,g 12.1,4.0
# From MPEC 2022-A21
241P/LINEAR,e,21.1064,305.4841,111.4346,4.918071,0.0903674,0.61009452,15.1053,01/09.0/2022,2000,g 13.5,4.0
# From MPEC 2021-S45
242P/Spahr,e,32.5020,180.3891,245.8275,5.488861,0.0766444,0.27833669,276.6750,01/09.0/2022,2000,g  8.0,4.0
# From MPC111774
243P/NEAT,e,7.6404,87.6251,283.5636,3.830635,0.1314613,0.36036925,161.8264,01/09.0/2022,2000,g 12.5,4.0
# From MPEC 2022-A21
244P/Scotti,e,2.2594,353.9911,93.0364,4.894837,0.0910116,0.19900141,331.6264,01/09.0/2022,2000,g  9.0,4.0
# From MPEC 2020-K19
245P/WISE,e,21.1960,316.6521,316.8823,4.045599,0.1211239,0.45679333,173.3004,01/09.0/2022,2000,g 14.0,4.0
# From MPEC 2021-WD8
246P/NEAT,e,15.9748,78.7045,176.4875,4.023393,0.1221280,0.28803049,39.0153,01/09.0/2022,2000,g 10.5,4.0
# From MPEC 2021-F20
247P/LINEAR,e,13.6551,54.0140,47.4443,3.968576,0.1246671,0.62429759,141.4563,01/09.0/2022,2000,g 16.5,2.0
# From MPC 75730
248P/Gibbs,e,6.3500,207.7889,209.8535,5.991388,0.0672068,0.63861380,269.5660,01/09.0/2022,2000,g 14.0,4.0
# From MPEC 2021-S45
249P/LINEAR,e,8.3910,239.1380,65.6698,2.763130,0.2145864,0.81999467,119.8481,01/09.0/2022,2000,g 15.5,4.0
# From MPC110497
250P/Larson,e,13.1608,73.4466,46.1587,3.764677,0.1349312,0.39981261,194.7195,01/09.0/2022,2000,g 14.5,4.0
# From MPC104795
251P/LINEAR,e,23.3889,219.3651,31.2858,3.511551,0.1497806,0.50479151,245.3921,01/09.0/2022,2000,g 16.5,2.0
# From MPEC 2021-S45
252P/LINEAR,e,10.4099,190.9435,343.3028,3.049137,0.1851137,0.67186092,33.6364,01/09.0/2022,2000,g 17.5,4.0
# From MPEC 2020-FB5
253P/PANSTARRS,e,4.9435,146.8852,230.6506,3.465989,0.1527437,0.41419947,204.8302,01/09.0/2022,2000,g 14.5,4.0
# From MPEC 2022-A21
254P/McNaught,e,32.5719,129.1769,219.5595,4.613163,0.0994731,0.31979182,46.3531,01/09.0/2022,2000,g 11.0,4.0
# From MPEC 2021-UA9
255P/Levy,e,13.4166,275.7147,185.9607,2.944155,0.1951026,0.71180703,312.9319,01/09.0/2022,2000,g 14.1,4.0
# From MPC 84027
256P/LINEAR,e,27.6217,81.3457,124.2262,4.638642,0.0986547,0.41799053,317.8366,01/09.0/2022,2000,g 14.0,2.0
# From MPEC 2021-Y10
257P/Catalina,e,20.2213,207.7298,117.6893,3.762593,0.1350434,0.43036886,65.5292,01/09.0/2022,2000,g 11.5,4.0
# From MPEC 2021-U31
258P/PANSTARRS,e,6.7461,126.2452,25.9297,4.397095,0.1068945,0.20847266,60.8830,01/09.0/2022,2000,g 13.0,4.0
# From MPC106349
259P/Garradd,e,15.8905,51.4504,257.6473,2.730257,0.2184735,0.33865601,353.3566,01/09.0/2022,2000,g 15.5,4.0
# From MPEC 2020-SI8
260P/McNaught,e,15.0583,349.3383,18.4187,3.623074,0.1429185,0.60925756,121.7204,01/09.0/2022,2000,g 13.5,4.0
# From MPEC 2021-J28
261P/Larson,e,6.0740,291.1477,67.1885,3.490406,0.1511437,0.42330629,141.2914,01/09.0/2022,2000,g 14.0,4.0
# From MPC 82322
262P/McNaught-Russell,e,29.2483,217.8739,171.0269,6.873364,0.0546953,0.81594259,181.8199,01/09.0/2022,2000,g 13.5,4.0
# From MPC 89018
263P/Gibbs,e,11.5220,105.5762,34.8752,3.045225,0.1854706,0.59341709,288.3067,01/09.0/2022,2000,g  9.0,4.0
# From MPC114608
264P/Larsen,e,25.1886,220.5035,346.7208,3.891351,0.1283966,0.37523515,114.0721,01/09.0/2022,2000,g 13.0,4.0
# From MPC 79870
265P/LINEAR,e,14.3650,342.9258,33.4495,4.253745,0.1123432,0.64755062,37.5130,01/09.0/2022,2000,g 14.5,4.0
# From MPEC 2021-F20
266P/Christensen,e,3.4270,4.9980,97.7351,3.533106,0.1484120,0.33952979,93.4642,01/09.0/2022,2000,g 14.7,4.0
# From MPC114608
267P/LONEOS,e,6.1404,228.5958,114.1848,3.211516,0.1712533,0.61437543,216.7328,01/09.0/2022,2000,g 19.5,4.0
# From MPC 92277
268P/Bernardi,e,16.0185,127.3596,359.8150,4.548684,0.1015957,0.47754300,250.3652,01/09.0/2022,2000,g 14.0,4.0
# From MPC104795
269P/Jedicke,e,7.0757,241.7209,225.7930,7.073718,0.0523881,0.43077256,139.2985,01/09.0/2022,2000,g 10.0,4.0
# From MPC 88332
270P/Gehrels,e,2.9215,222.9981,209.7923,6.663078,0.0573049,0.46804414,179.7669,01/09.0/2022,2000,g  8.0,4.0
# From MPC 92277
271P/van Houten-Lemmon,e,6.8716,9.3151,36.3854,7.040426,0.0527601,0.39482846,163.6132,01/09.0/2022,2000,g 11.0,4.0
# From MPC 81862
272P/NEAT,e,18.0752,109.4700,27.9087,4.458941,0.1046783,0.45454269,340.2061,01/09.0/2022,2000,g 16.0,2.0
# From MPC 82723
273P/Pons-Gambart,e,136.7794,320.4004,20.3290,31.89455,0.0054718,0.97418733,0.0000,12/19.4194/2012,2000,g 11.5,4.0
# From MPEC 2022-A21
